[{"OBJECT_NAME":"QIANFAN-16","OBJECT_ID":"2024-140R","EPOCH":"2026-03-09T21:51:43.552800","MEAN_MOTION":13.50998466,"ECCENTRICITY":0.00136929,"INCLINATION":88.971,"RA_OF_ASC_NODE":290.3718,"ARG_OF_PERICENTER":326.9882,"MEAN_ANOMALY":33.0413,"EPHEMERIS_TYPE":0,"CLASSIFICATION_TYPE":"U","NORAD_CAT_ID":60394,"ELEMENT_SET_NO":999,"REV_AT_EPOCH":7894,"BSTAR":0.00010191129,"MEAN_MOTION_DOT":7.8e-7,"MEAN_MOTION_DDOT":0},{"OBJECT_NAME":"ATLAS 2AS CENTAUR R\/B","OBJECT_ID":"2001-040B","EPOCH":"2026-03-09T22:02:41.625312","MEAN_MOTION":13.45165303,"ECCENTRICITY":0.06196252,"INCLINATION":63.4216,"RA_OF_ASC_NODE":53.9212,"ARG_OF_PERICENTER":341.5525,"MEAN_ANOMALY":16.3893,"EPHEMERIS_TYPE":0,"CLASSIFICATION_TYPE":"U","NORAD_CAT_ID":26906,"ELEMENT_SET_NO":999,"REV_AT_EPOCH":9005,"BSTAR":0.00043319043,"MEAN_MOTION_DOT":7.29e-6,"MEAN_MOTION_DDOT":0}]
